{
  "norad_id": 53673,
  "name": "STARLINK-4456",
  "history": [
    {
      "epoch": "2026-03-28T22:13:06.131424",
      "apogee_km": 551.1801405062206,
      "perigee_km": 547.8732895084977,
      "latitude_deg": 64.76989428245686,
      "longitude_deg": -3.826520639937371,
      "semi_major_axis_km": 6927.663715007358,
      "eccentricity": 0.00023867,
      "inclination_deg": 97.6024,
      "raan_deg": 330.186,
      "arg_perigee_deg": 86.1287,
      "mean_anomaly_deg": 274.0213,
      "mean_motion_rev_day": 15.05644927
    },
    {
      "epoch": "2026-03-29T04:35:54.040416",
      "apogee_km": 551.2313110854047,
      "perigee_km": 547.8187447704477,
      "latitude_deg": 20.644480947038037,
      "longitude_deg": 21.693378240102902,
      "semi_major_axis_km": 6927.662027927926,
      "eccentricity": 0.0002463,
      "inclination_deg": 97.6024,
      "raan_deg": 330.448,
      "arg_perigee_deg": 86.1153,
      "mean_anomaly_deg": 274.0356,
      "mean_motion_rev_day": 15.05645477
    }
  ]
}